<?xml version="1.0" encoding="UTF-8"?>
<ndm xmlns:xsi="http://www.w3.org/2001/XMLSchema-instance" xsi:noNamespaceSchemaLocation="https://sanaregistry.org/r/ndmxml_unqualified/ndmxml-2.0.0-master-2.0.xsd">
<omm id="CCSDS_OMM_VERS" version="2.0">
<header><CREATION_DATE/><ORIGINATOR/></header><body><segment><metadata><OBJECT_NAME>ONEWEB-0638</OBJECT_NAME><OBJECT_ID>2023-029G</OBJECT_ID><CENTER_NAME>EARTH</CENTER_NAME><REF_FRAME>TEME</REF_FRAME><TIME_SYSTEM>UTC</TIME_SYSTEM><MEAN_ELEMENT_THEORY>SGP4</MEAN_ELEMENT_THEORY></metadata><data><meanElements><EPOCH>2023-10-23T22:27:30.225600</EPOCH><MEAN_MOTION>13.14498411</MEAN_MOTION><ECCENTRICITY>.0002369</ECCENTRICITY><INCLINATION>87.8953</INCLINATION><RA_OF_ASC_NODE>122.2908</RA_OF_ASC_NODE><ARG_OF_PERICENTER>75.3568</ARG_OF_PERICENTER><MEAN_ANOMALY>284.7824</MEAN_ANOMALY></meanElements><tleParameters><EPHEMERIS_TYPE>0</EPHEMERIS_TYPE><CLASSIFICATION_TYPE>U</CLASSIFICATION_TYPE><NORAD_CAT_ID>55802</NORAD_CAT_ID><ELEMENT_SET_NO>999</ELEMENT_SET_NO><REV_AT_EPOCH>3232</REV_AT_EPOCH><BSTAR>-.59627E-3</BSTAR><MEAN_MOTION_DOT>-.208E-5</MEAN_MOTION_DOT><MEAN_MOTION_DDOT>0</MEAN_MOTION_DDOT></tleParameters></data></segment></body></omm>
<omm id="CCSDS_OMM_VERS" version="2.0">
<header><CREATION_DATE/><ORIGINATOR/></header><body><segment><metadata><OBJECT_NAME>ONEWEB-0639</OBJECT_NAME><OBJECT_ID>2023-029H</OBJECT_ID><CENTER_NAME>EARTH</CENTER_NAME><REF_FRAME>TEME</REF_FRAME><TIME_SYSTEM>UTC</TIME_SYSTEM><MEAN_ELEMENT_THEORY>SGP4</MEAN_ELEMENT_THEORY></metadata><data><meanElements><EPOCH>2023-10-23T20:05:22.950816</EPOCH><MEAN_MOTION>13.19724857</MEAN_MOTION><ECCENTRICITY>.0002128</ECCENTRICITY><INCLINATION>87.9187</INCLINATION><RA_OF_ASC_NODE>137.5077</RA_OF_ASC_NODE><ARG_OF_PERICENTER>42.0251</ARG_OF_PERICENTER><MEAN_ANOMALY>318.1045</MEAN_ANOMALY></meanElements><tleParameters><EPHEMERIS_TYPE>0</EPHEMERIS_TYPE><CLASSIFICATION_TYPE>U</CLASSIFICATION_TYPE><NORAD_CAT_ID>55803</NORAD_CAT_ID><ELEMENT_SET_NO>999</ELEMENT_SET_NO><REV_AT_EPOCH>3131</REV_AT_EPOCH><BSTAR>-.72833E-3</BSTAR><MEAN_MOTION_DOT>-.279E-5</MEAN_MOTION_DOT><MEAN_MOTION_DDOT>0</MEAN_MOTION_DDOT></tleParameters></data></segment></body></omm>
<omm id="CCSDS_OMM_VERS" version="2.0">
<header><CREATION_DATE/><ORIGINATOR/></header><body><segment><metadata><OBJECT_NAME>ONEWEB-0640</OBJECT_NAME><OBJECT_ID>2023-029J</OBJECT_ID><CENTER_NAME>EARTH</CENTER_NAME><REF_FRAME>TEME</REF_FRAME><TIME_SYSTEM>UTC</TIME_SYSTEM><MEAN_ELEMENT_THEORY>SGP4</MEAN_ELEMENT_THEORY></metadata><data><meanElements><EPOCH>2023-10-23T19:00:25.202304</EPOCH><MEAN_MOTION>13.14507674</MEAN_MOTION><ECCENTRICITY>.0002679</ECCENTRICITY><INCLINATION>87.8927</INCLINATION><RA_OF_ASC_NODE>122.3297</RA_OF_ASC_NODE><ARG_OF_PERICENTER>68.9518</ARG_OF_PERICENTER><MEAN_ANOMALY>291.1898</MEAN_ANOMALY></meanElements><tleParameters><EPHEMERIS_TYPE>0</EPHEMERIS_TYPE><CLASSIFICATION_TYPE>U</CLASSIFICATION_TYPE><NORAD_CAT_ID>55804</NORAD_CAT_ID><ELEMENT_SET_NO>999</ELEMENT_SET_NO><REV_AT_EPOCH>3232</REV_AT_EPOCH><BSTAR>.40687E-4</BSTAR><MEAN_MOTION_DOT>.28E-6</MEAN_MOTION_DOT><MEAN_MOTION_DDOT>0</MEAN_MOTION_DDOT></tleParameters></data></segment></body></omm>
<omm id="CCSDS_OMM_VERS" version="2.0">
<header><CREATION_DATE/><ORIGINATOR/></header><body><segment><metadata><OBJECT_NAME>ONEWEB-0641</OBJECT_NAME><OBJECT_ID>2023-029K</OBJECT_ID><CENTER_NAME>EARTH</CENTER_NAME><REF_FRAME>TEME</REF_FRAME><TIME_SYSTEM>UTC</TIME_SYSTEM><MEAN_ELEMENT_THEORY>SGP4</MEAN_ELEMENT_THEORY></metadata><data><meanElements><EPOCH>2023-10-23T19:58:34.887936</EPOCH><MEAN_MOTION>13.19726057</MEAN_MOTION><ECCENTRICITY>.0001586</ECCENTRICITY><INCLINATION>87.9127</INCLINATION><RA_OF_ASC_NODE>137.5247</RA_OF_ASC_NODE><ARG_OF_PERICENTER>68.8011</ARG_OF_PERICENTER><MEAN_ANOMALY>291.3291</MEAN_ANOMALY></meanElements><tleParameters><EPHEMERIS_TYPE>0</EPHEMERIS_TYPE><CLASSIFICATION_TYPE>U</CLASSIFICATION_TYPE><NORAD_CAT_ID>55805</NORAD_CAT_ID><ELEMENT_SET_NO>999</ELEMENT_SET_NO><REV_AT_EPOCH>3201</REV_AT_EPOCH><BSTAR>.35849E-3</BSTAR><MEAN_MOTION_DOT>.156E-5</MEAN_MOTION_DOT><MEAN_MOTION_DDOT>0</MEAN_MOTION_DDOT></tleParameters></data></segment></body></omm>
<omm id="CCSDS_OMM_VERS" version="2.0">
<header><CREATION_DATE/><ORIGINATOR/></header><body><segment><metadata><OBJECT_NAME>ONEWEB-0642</OBJECT_NAME><OBJECT_ID>2023-029L</OBJECT_ID><CENTER_NAME>EARTH</CENTER_NAME><REF_FRAME>TEME</REF_FRAME><TIME_SYSTEM>UTC</TIME_SYSTEM><MEAN_ELEMENT_THEORY>SGP4</MEAN_ELEMENT_THEORY></metadata><data><meanElements><EPOCH>2023-10-23T19:51:45.104832</EPOCH><MEAN_MOTION>13.19724007</MEAN_MOTION><ECCENTRICITY>.0001712</ECCENTRICITY><INCLINATION>87.9190</INCLINATION><RA_OF_ASC_NODE>137.5114</RA_OF_ASC_NODE><ARG_OF_PERICENTER>40.1355</ARG_OF_PERICENTER><MEAN_ANOMALY>319.9904</MEAN_ANOMALY></meanElements><tleParameters><EPHEMERIS_TYPE>0</EPHEMERIS_TYPE><CLASSIFICATION_TYPE>U</CLASSIFICATION_TYPE><NORAD_CAT_ID>55806</NORAD_CAT_ID><ELEMENT_SET_NO>999</ELEMENT_SET_NO><REV_AT_EPOCH>3131</REV_AT_EPOCH><BSTAR>.30285E-3</BSTAR><MEAN_MOTION_DOT>.134E-5</MEAN_MOTION_DOT><MEAN_MOTION_DDOT>0</MEAN_MOTION_DDOT></tleParameters></data></segment></body></omm>
<omm id="CCSDS_OMM_VERS" version="2.0">
<header><CREATION_DATE/><ORIGINATOR/></header><body><segment><metadata><OBJECT_NAME>ONEWEB-0643</OBJECT_NAME><OBJECT_ID>2023-029M</OBJECT_ID><CENTER_NAME>EARTH</CENTER_NAME><REF_FRAME>TEME</REF_FRAME><TIME_SYSTEM>UTC</TIME_SYSTEM><MEAN_ELEMENT_THEORY>SGP4</MEAN_ELEMENT_THEORY></metadata><data><meanElements><EPOCH>2023-10-23T22:00:08.858880</EPOCH><MEAN_MOTION>13.14418851</MEAN_MOTION><ECCENTRICITY>.0002249</ECCENTRICITY><INCLINATION>87.8952</INCLINATION><RA_OF_ASC_NODE>122.2705</RA_OF_ASC_NODE><ARG_OF_PERICENTER>67.2905</ARG_OF_PERICENTER><MEAN_ANOMALY>292.8462</MEAN_ANOMALY></meanElements><tleParameters><EPHEMERIS_TYPE>0</EPHEMERIS_TYPE><CLASSIFICATION_TYPE>U</CLASSIFICATION_TYPE><NORAD_CAT_ID>55807</NORAD_CAT_ID><ELEMENT_SET_NO>999</ELEMENT_SET_NO><REV_AT_EPOCH>3231</REV_AT_EPOCH><BSTAR>.49472E-1</BSTAR><MEAN_MOTION_DOT>.18368E-3</MEAN_MOTION_DOT><MEAN_MOTION_DDOT>0</MEAN_MOTION_DDOT></tleParameters></data></segment></body></omm>
<omm id="CCSDS_OMM_VERS" version="2.0">
<header><CREATION_DATE/><ORIGINATOR/></header><body><segment><metadata><OBJECT_NAME>ONEWEB-0644</OBJECT_NAME><OBJECT_ID>2023-029N</OBJECT_ID><CENTER_NAME>EARTH</CENTER_NAME><REF_FRAME>TEME</REF_FRAME><TIME_SYSTEM>UTC</TIME_SYSTEM><MEAN_ELEMENT_THEORY>SGP4</MEAN_ELEMENT_THEORY></metadata><data><meanElements><EPOCH>2023-10-23T19:44:56.272128</EPOCH><MEAN_MOTION>13.19727430</MEAN_MOTION><ECCENTRICITY>.0001582</ECCENTRICITY><INCLINATION>87.9117</INCLINATION><RA_OF_ASC_NODE>137.5114</RA_OF_ASC_NODE><ARG_OF_PERICENTER>56.0516</ARG_OF_PERICENTER><MEAN_ANOMALY>304.0767</MEAN_ANOMALY></meanElements><tleParameters><EPHEMERIS_TYPE>0</EPHEMERIS_TYPE><CLASSIFICATION_TYPE>U</CLASSIFICATION_TYPE><NORAD_CAT_ID>55808</NORAD_CAT_ID><ELEMENT_SET_NO>999</ELEMENT_SET_NO><REV_AT_EPOCH>3131</REV_AT_EPOCH><BSTAR>.24205E-3</BSTAR><MEAN_MOTION_DOT>.11E-5</MEAN_MOTION_DOT><MEAN_MOTION_DDOT>0</MEAN_MOTION_DDOT></tleParameters></data></segment></body></omm>
<omm id="CCSDS_OMM_VERS" version="2.0">
<header><CREATION_DATE/><ORIGINATOR/></header><body><segment><metadata><OBJECT_NAME>ONEWEB-0645</OBJECT_NAME><OBJECT_ID>2023-029P</OBJECT_ID><CENTER_NAME>EARTH</CENTER_NAME><REF_FRAME>TEME</REF_FRAME><TIME_SYSTEM>UTC</TIME_SYSTEM><MEAN_ELEMENT_THEORY>SGP4</MEAN_ELEMENT_THEORY></metadata><data><meanElements><EPOCH>2023-10-23T19:39:15.849216</EPOCH><MEAN_MOTION>13.19724321</MEAN_MOTION><ECCENTRICITY>.0001966</ECCENTRICITY><INCLINATION>87.9192</INCLINATION><RA_OF_ASC_NODE>137.5089</RA_OF_ASC_NODE><ARG_OF_PERICENTER>63.3431</ARG_OF_PERICENTER><MEAN_ANOMALY>296.7903</MEAN_ANOMALY></meanElements><tleParameters><EPHEMERIS_TYPE>0</EPHEMERIS_TYPE><CLASSIFICATION_TYPE>U</CLASSIFICATION_TYPE><NORAD_CAT_ID>55809</NORAD_CAT_ID><ELEMENT_SET_NO>999</ELEMENT_SET_NO><REV_AT_EPOCH>3131</REV_AT_EPOCH><BSTAR>.77977E-4</BSTAR><MEAN_MOTION_DOT>.44E-6</MEAN_MOTION_DOT><MEAN_MOTION_DDOT>0</MEAN_MOTION_DDOT></tleParameters></data></segment></body></omm>
<omm id="CCSDS_OMM_VERS" version="2.0">
<header><CREATION_DATE/><ORIGINATOR/></header><body><segment><metadata><OBJECT_NAME>ONEWEB-0646</OBJECT_NAME><OBJECT_ID>2023-029Q</OBJECT_ID><CENTER_NAME>EARTH</CENTER_NAME><REF_FRAME>TEME</REF_FRAME><TIME_SYSTEM>UTC</TIME_SYSTEM><MEAN_ELEMENT_THEORY>SGP4</MEAN_ELEMENT_THEORY></metadata><data><meanElements><EPOCH>2023-10-23T22:11:38.508864</EPOCH><MEAN_MOTION>13.19725937</MEAN_MOTION><ECCENTRICITY>.0001988</ECCENTRICITY><INCLINATION>87.9190</INCLINATION><RA_OF_ASC_NODE>137.4911</RA_OF_ASC_NODE><ARG_OF_PERICENTER>77.4953</ARG_OF_PERICENTER><MEAN_ANOMALY>282.6402</MEAN_ANOMALY></meanElements><tleParameters><EPHEMERIS_TYPE>0</EPHEMERIS_TYPE><CLASSIFICATION_TYPE>U</CLASSIFICATION_TYPE><NORAD_CAT_ID>55810</NORAD_CAT_ID><ELEMENT_SET_NO>999</ELEMENT_SET_NO><REV_AT_EPOCH>3131</REV_AT_EPOCH><BSTAR>.60746E-3</BSTAR><MEAN_MOTION_DOT>.256E-5</MEAN_MOTION_DOT><MEAN_MOTION_DDOT>0</MEAN_MOTION_DDOT></tleParameters></data></segment></body></omm>

</ndm>
